NORAD_CAT_ID,OBJECT_NAME,OBJECT_TYPE,EPOCH,MEAN_MOTION,ECCENTRICITY,INCLINATION,RA_OF_ASC_NODE,ARG_OF_PERICENTER,MEAN_ANOMALY,BSTAR,MEAN_MOTION_DOT,MEAN_MOTION_DDOT,TLE_LINE0,TLE_LINE1,TLE_LINE2,SEMIMAJOR_AXIS,PERIOD,APOGEE,PERIGEE,DECAYED
53631.0,STARLINK-4599,PAYLOAD,2023-02-08 19:41:47,15.08841526,8.99e-05,53.2147,243.4573,76.8207,283.2885,1.4038e-05,-6.4e-07,0.0,0 STARLINK-4599,1 53631U 22104AV  23039.82068405 -.00000064  00000-0  14038-4 0  9998,2 53631  53.2147 243.4573 0000899  76.8207 283.2885 15.08841526 25942,6917.876,95.437,540.363,539.119,0.0
53631.0,STARLINK-4599,PAYLOAD,2023-02-09 19:32:34,15.08793368,9.84e-05,53.2142,238.9975,95.2692,264.8412,0.00089827,0.00014019,0.0,0 STARLINK-4599,1 53631U 22104AV  23040.81429383  .00014019  00000-0  89827-3 0  9996,2 53631  53.2142 238.9975 0000984  95.2692 264.8412 15.08793368 25402,6918.023,95.441,540.569,539.207,0.0
53631.0,STARLINK-4599,PAYLOAD,2023-02-10 14:37:11,15.08841543,0.0001013,53.2136,235.4285,75.9239,284.1865,0.00011738,1.581e-05,0.0,0 STARLINK-4599,1 53631U 22104AV  23041.60916407  .00001581  00000-0  11738-3 0  9998,2 53631  53.2136 235.4285 0001013  75.9239 284.1865 15.08841543 25526,6917.876,95.437,540.441,539.04,0.0
53631.0,STARLINK-4599,PAYLOAD,2023-02-10 16:12:34,15.08842141,9.99e-05,53.2136,235.1312,74.7939,285.3164,0.00012278,1.667e-05,0.0,0 STARLINK-4599,1 53631U 22104AV  23041.67540375  .00001667  00000-0  12278-3 0  9997,2 53631  53.2136 235.1312 0000999  74.7939 285.3164 15.08842141 26228,6917.874,95.437,540.43,539.048,0.0
53631.0,STARLINK-4599,PAYLOAD,2023-02-11 12:52:35,15.08838058,9.51e-05,53.2145,231.2644,94.6984,265.4117,-2.0748e-05,-6.18e-06,0.0,0 STARLINK-4599,1 53631U 22104AV  23042.53652750 -.00000618  00000-0 -20748-4 0  9993,2 53631  53.2145 231.2644 0000951  94.6984 265.4117 15.08838058 25668,6917.886,95.438,540.409,539.093,0.0
53631.0,STARLINK-4599,PAYLOAD,2023-02-11 19:14:08,15.08842294,9.15e-05,53.2145,230.075,89.3173,270.7924,1.276e-05,-8.5e-07,0.0,0 STARLINK-4599,1 53631U 22104AV  23042.80148353 -.00000085  00000-0  12760-4 0  9994,2 53631  53.2145 230.0750 0000915  89.3173 270.7924 15.08842294 26397,6917.873,95.437,540.371,539.105,0.0
53631.0,STARLINK-4599,PAYLOAD,2023-02-12 07:57:13,15.0883442,9.33e-05,53.2146,227.6962,98.2103,261.8995,2.09e-05,4.5e-07,0.0,0 STARLINK-4599,1 53631U 22104AV  23043.33140838  .00000045  00000-0  20900-4 0  9993,2 53631  53.2146 227.6962 0000933  98.2103 261.8995 15.08834420 26477,6917.897,95.438,540.408,539.117,0.0
53631.0,STARLINK-4599,PAYLOAD,2023-02-12 19:04:55,15.08839479,9.09e-05,53.2145,225.6149,92.9172,267.1925,6.0265e-05,6.72e-06,0.0,0 STARLINK-4599,1 53631U 22104AV  23043.79508543  .00000672  00000-0  60265-4 0  9998,2 53631  53.2145 225.6149 0000909  92.9172 267.1925 15.08839479 25853,6917.882,95.438,540.376,539.118,0.0
53631.0,STARLINK-4599,PAYLOAD,2023-02-13 10:58:47,15.08835252,8.75e-05,53.2147,222.6408,87.0826,273.0266,9.1789e-05,1.173e-05,0.0,0 STARLINK-4599,1 53631U 22104AV  23044.45748931  .00001173  00000-0  91789-4 0  9991,2 53631  53.2147 222.6408 0000875  87.0826 273.0266 15.08835252 26640,6917.895,95.438,540.365,539.155,0.0
53631.0,STARLINK-4599,PAYLOAD,2023-02-14 04:28:01,15.08840712,8.24e-05,53.2148,219.3701,88.2923,271.8163,8.7011e-05,1.097e-05,0.0,0 STARLINK-4599,1 53631U 22104AV  23045.18612723  .00001097  00000-0  87011-4 0  9999,2 53631  53.2148 219.3701 0000824  88.2923 271.8163 15.08840712 26060,6917.878,95.438,540.313,539.173,0.0
53631.0,STARLINK-4599,PAYLOAD,2023-02-14 14:00:20,15.08833118,9.05e-05,53.215,217.586,83.5594,276.5501,6.8165e-05,7.97e-06,0.0,0 STARLINK-4599,1 53631U 22104AV  23045.58357344  .00000797  00000-0  68165-4 0  9993,2 53631  53.2150 217.5860 0000905  83.5594 276.5501 15.08833118 26128,6917.901,95.438,540.392,539.14,0.0
53631.0,STARLINK-4599,PAYLOAD,2023-02-15 04:18:48,15.08844041,8.16e-05,53.2154,214.9095,85.1438,274.9648,0.00010014,1.307e-05,0.0,0 STARLINK-4599,1 53631U 22104AV  23046.17972572  .00001307  00000-0  10014-3 0  9992,2 53631  53.2154 214.9095 0000816  85.1438 274.9648 15.08844041 26210,6917.868,95.437,540.298,539.169,0.0
53631.0,STARLINK-4599,PAYLOAD,2023-02-15 10:40:20,15.08845968,0.0001127,53.2141,213.7209,87.1453,272.9668,1.6296e-05,-2.8e-07,0.0,0 STARLINK-4599,1 53631U 22104AV  23046.44468736 -.00000028  00000-0  16296-4 0  9993,2 53631  53.2141 213.7209 0001127  87.1453 272.9668 15.08845968 26944,6917.862,95.437,540.507,538.948,0.0
53631.0,STARLINK-4599,PAYLOAD,2023-02-15 13:51:07,15.08841654,0.000138,53.2138,213.1233,82.3405,277.7743,7.5971e-05,9.21e-06,0.0,0 STARLINK-4599,1 53631U 22104AV  23046.57716930  .00000921  00000-0  75971-4 0  9995,2 53631  53.2138 213.1233 0001380  82.3405 277.7743 15.08841654 26963,6917.875,95.437,540.695,538.786,0.0
53631.0,STARLINK-4599,PAYLOAD,2023-02-16 10:31:07,15.0884067,8.43e-05,53.2153,209.2585,72.8159,287.2925,0.00010128,1.325e-05,0.0,0 STARLINK-4599,1 53631U 22104AV  23047.43828670  .00001325  00000-0  10128-3 0  9997,2 53631  53.2153 209.2585 0000843  72.8159 287.2925 15.08840670 27099,6917.878,95.438,540.327,539.16,0.0
53631.0,STARLINK-4599,PAYLOAD,2023-02-16 13:41:53,15.08845291,0.0001217,53.2144,208.664,78.6199,281.493,0.00012853,1.759e-05,0.0,0 STARLINK-4599,1 53631U 22104AV  23047.57076364  .00001759  00000-0  12853-3 0  9995,2 53631  53.2144 208.6640 0001217  78.6199 281.4930 15.08845291 26420,6917.864,95.437,540.571,538.887,0.0
53631.0,STARLINK-4599,PAYLOAD,2023-02-16 16:52:40,15.08840076,8.73e-05,53.2156,208.069,77.778,282.331,8.7978e-05,1.113e-05,0.0,0 STARLINK-4599,1 53631U 22104AV  23047.70324674  .00001113  00000-0  87978-4 0  9995,2 53631  53.2156 208.0690 0000873  77.7780 282.3310 15.08840076 27132,6917.88,95.438,540.349,539.141,0.0
53631.0,STARLINK-4599,PAYLOAD,2023-02-17 11:57:19,15.08826535,0.0001116,53.2153,204.5007,88.9568,271.1552,-4.6913e-05,-1.034e-05,0.0,0 STARLINK-4599,1 53631U 22104AV  23048.49813830 -.00001034  00000-0 -46913-4 0  9997,2 53631  53.2153 204.5007 0001116  88.9568 271.1552 15.08826535 26565,6917.922,95.438,540.559,539.015,0.0
53631.0,STARLINK-4599,PAYLOAD,2023-02-17 16:43:28,15.08830731,9.35e-05,53.2161,203.6086,86.4146,273.6953,1.2576e-05,-8.8e-07,0.0,0 STARLINK-4599,1 53631U 22104AV  23048.69685523 -.00000088  00000-0  12576-4 0  9990,2 53631  53.2161 203.6086 0000935  86.4146 273.6953 15.08830731 27289,6917.909,95.438,540.421,539.127,0.0
53631.0,STARLINK-4599,PAYLOAD,2023-02-18 05:26:33,15.08839074,0.0001083,53.2153,201.2289,89.7366,270.3751,-8.9822e-06,-4.31e-06,0.0,0 STARLINK-4599,1 53631U 22104AV  23049.22677102 -.00000431  00000-0 -89822-5 0  9996,2 53631  53.2153 201.2289 0001083  89.7366 270.3751 15.08839074 26675,6917.883,95.438,540.497,538.999,0.0
53631.0,STARLINK-4599,PAYLOAD,2023-02-18 11:48:05,15.08839322,0.00011,53.2151,200.0401,84.8275,275.2843,-3.6345e-05,-8.66e-06,0.0,0 STARLINK-4599,1 53631U 22104AV  23049.49173232 -.00000866  00000-0 -36345-4 0  9993,2 53631  53.2151 200.0401 0001100  84.8275 275.2843 15.08839322 27405,6917.882,95.438,540.508,538.986,0.0
53631.0,STARLINK-4599,PAYLOAD,2023-02-19 14:49:39,15.08830805,0.000118,53.215,194.986,82.131,277.9816,0.00015496,2.179e-05,0.0,0 STARLINK-4599,1 53631U 22104AV  23050.61781471  .00002179  00000-0  15496-3 0  9999,2 53631  53.2150 194.9860 0001180  82.1310 277.9816 15.08830805 26880,6917.908,95.438,540.59,538.957,0.0
53631.0,STARLINK-4599,PAYLOAD,2023-02-19 18:00:24,15.08841611,0.0001154,53.2152,194.3897,88.9062,271.2062,0.00014851,2.077e-05,0.0,0 STARLINK-4599,1 53631U 22104AV  23050.75028787  .00002077  00000-0  14851-3 0  9999,2 53631  53.2152 194.3897 0001154  88.9062 271.2062 15.08841611 26905,6917.875,95.437,540.539,538.942,0.0
53631.0,STARLINK-4599,PAYLOAD,2023-02-20 13:05:03,15.08835603,9.21e-05,53.2158,190.8218,93.7871,266.3226,5.2087e-05,5.41e-06,0.0,0 STARLINK-4599,1 53631U 22104AV  23051.54517602  .00000541  00000-0  52087-4 0  9994,2 53631  53.2158 190.8218 0000921  93.7871 266.3226 15.08835603 27027,6917.894,95.438,540.396,539.122,0.0
53631.0,STARLINK-4599,PAYLOAD,2023-02-20 19:26:35,15.08847197,9.63e-05,53.2151,189.6329,90.8459,269.2643,0.00010083,1.318e-05,0.0,0 STARLINK-4599,1 53631U 22104AV  23051.81012782  .00001318  00000-0  10083-3 0  9995,2 53631  53.2151 189.6329 0000963  90.8459 269.2643 15.08847197 27065,6917.858,95.437,540.39,539.057,0.0
53631.0,STARLINK-4599,PAYLOAD,2023-02-21 01:48:07,15.08842742,8.68e-05,53.2148,188.4442,89.5231,270.5861,3.8626e-05,3.27e-06,0.0,0 STARLINK-4599,1 53631U 22104AV  23052.07509176  .00000327  00000-0  38626-4 0  9995,2 53631  53.2148 188.4442 0000868  89.5231 270.5861 15.08842742 27104,6917.872,95.437,540.337,539.137,0.0
53631.0,STARLINK-4599,PAYLOAD,2023-02-21 12:55:49,15.08842914,9.63e-05,53.2151,186.3613,100.036,260.074,1.8214e-05,2e-08,0.0,0 STARLINK-4599,1 53631U 22104AV  23052.53877243  .00000002  00000-0  18214-4 0  9990,2 53631  53.2151 186.3613 0000963 100.0360 260.0740 15.08842914 27867,6917.871,95.437,540.403,539.07,0.0
53631.0,STARLINK-4599,PAYLOAD,2023-02-21 16:06:35,15.08849748,6.31e-05,53.2152,185.7672,86.9629,273.1436,0.00010979,1.461e-05,0.0,0 STARLINK-4599,1 53631U 22104AV  23052.67124554  .00001461  00000-0  10979-3 0  9994,2 53631  53.2152 185.7672 0000631  86.9629 273.1436 15.08849748 27889,6917.851,95.437,540.152,539.279,0.0
53631.0,STARLINK-4599,PAYLOAD,2023-02-22 09:35:50,15.088434,3.72e-05,53.2154,182.4962,63.3845,296.7185,1.1222e-05,-1.09e-06,0.0,0 STARLINK-4599,1 53631U 22104AV  23053.39989222 -.00000109  00000-0  11222-4 0  9997,2 53631  53.2154 182.4962 0000372  63.3845 296.7185 15.08843400 27306,6917.87,95.437,539.992,539.478,0.0
53631.0,STARLINK-4599,PAYLOAD,2023-02-22 12:46:36,15.08842746,4.23e-05,53.2154,181.9014,72.6415,287.4623,1.9716e-06,-2.56e-06,0.0,0 STARLINK-4599,1 53631U 22104AV  23053.53237210 -.00000256  00000-0  19716-5 0  9996,2 53631  53.2154 181.9014 0000423  72.6415 287.4623 15.08842746 28016,6917.872,95.437,540.03,539.444,0.0
